{"fetched_at":"2026-07-13T18:17:22.244Z","source":"https://celestrak.org/NORAD/elements/gp.php?NAME=TIGER&FORMAT=JSON","constellation":"oq-technology","records":[{"OBJECT_NAME":"TIGER-8","OBJECT_ID":"2024-043Y","EPOCH":"2026-07-13T07:42:32.137056","CLASSIFICATION_TYPE":"U","MEAN_MOTION":15.45147925,"ECCENTRICITY":0.00088828,"INCLINATION":97.5565,"RA_OF_ASC_NODE":343.991,"ARG_OF_PERICENTER":108.5311,"MEAN_ANOMALY":251.6903,"EPHEMERIS_TYPE":0,"NORAD_CAT_ID":59120,"ELEMENT_SET_NO":999,"REV_AT_EPOCH":13182,"BSTAR":0.00012997731,"MEAN_MOTION_DOT":0.00006071,"MEAN_MOTION_DDOT":0},{"OBJECT_NAME":"TIGER-7","OBJECT_ID":"2024-043AV","EPOCH":"2026-07-12T21:48:02.691072","CLASSIFICATION_TYPE":"U","MEAN_MOTION":15.49318357,"ECCENTRICITY":0.00068459,"INCLINATION":97.5508,"RA_OF_ASC_NODE":346.0563,"ARG_OF_PERICENTER":83.3627,"MEAN_ANOMALY":276.8402,"EPHEMERIS_TYPE":0,"NORAD_CAT_ID":59141,"ELEMENT_SET_NO":999,"REV_AT_EPOCH":13195,"BSTAR":0.00016116835,"MEAN_MOTION_DOT":0.00008726,"MEAN_MOTION_DDOT":0}]}
