TIGER-8                 
1 59120U 24043Y   26194.32120529  .00006071  00000+0  12998-3 0  9991
2 59120  97.5565 343.9910 0008882 108.5311 251.6903 15.45147925131824
TIGER-7                 
1 59141U 24043AV  26193.90836448  .00008726  00000+0  16117-3 0  9997
2 59141  97.5508 346.0563 0006845  83.3627 276.8402 15.49318357131959
